[{"OBJECT_NAME":"STARLINK-5306","OBJECT_ID":"2023-010C","EPOCH":"2026-03-09T08:36:13.834944","MEAN_MOTION":14.98330801,"ECCENTRICITY":0.00030221,"INCLINATION":70.0003,"RA_OF_ASC_NODE":45.3995,"ARG_OF_PERICENTER":270.3748,"MEAN_ANOMALY":89.7065,"EPHEMERIS_TYPE":0,"CLASSIFICATION_TYPE":"U","NORAD_CAT_ID":55271,"ELEMENT_SET_NO":999,"REV_AT_EPOCH":17273,"BSTAR":7.3714316e-5,"MEAN_MOTION_DOT":7.87e-6,"MEAN_MOTION_DDOT":0},{"OBJECT_NAME":"LEMUR-2-LEIA-PHILIP","OBJECT_ID":"2025-052AN","EPOCH":"2026-03-09T22:47:11.533920","MEAN_MOTION":14.96639353,"ECCENTRICITY":0.00032822,"INCLINATION":97.6941,"RA_OF_ASC_NODE":322.5414,"ARG_OF_PERICENTER":181.695,"MEAN_ANOMALY":178.4261,"EPHEMERIS_TYPE":0,"CLASSIFICATION_TYPE":"U","NORAD_CAT_ID":63246,"ELEMENT_SET_NO":999,"REV_AT_EPOCH":5382,"BSTAR":0.00057534341,"MEAN_MOTION_DOT":6.505e-5,"MEAN_MOTION_DDOT":0}]
